{
  "type": "FeatureCollection",
  "features": [
    {
      "type": "Feature",
      "properties": {
        "norad_id": 31205,
        "name": "FENGYUN 1C DEB",
        "group": "fengyun-1c-debris",
        "lat": -71.42546135951535,
        "lon": 106.87033977282275,
        "alt_km": 804.0619954260728,
        "timestamp": "2025-12-10T20:49:52.834410+00:00",
        "meta_object_name": "FENGYUN 1C DEB",
        "meta_object_id": "1999-025BKK",
        "meta_epoch": "2025-12-08T16:54:13.993632",
        "meta_mean_motion": 14.23952534,
        "meta_eccentricity": 0.01617006,
        "meta_inclination": 99.2293,
        "meta_ra_of_asc_node": 75.6624,
        "meta_arg_of_pericenter": 208.9841,
        "meta_mean_anomaly": 150.2285,
        "meta_ephemeris_type": 0,
        "meta_classification_type": "U",
        "meta_norad_cat_id": 31205,
        "meta_element_set_no": 999,
        "meta_rev_at_epoch": 97153,
        "meta_bstar": 0.00033027217,
        "meta_mean_motion_dot": 8.17e-06,
        "meta_mean_motion_ddot": 0,
        "tle_line1": "1 31205U 99025BKK 25342.70432863  .00000817  00000+0  33027-3 0  9998",
        "tle_line2": "2 31205  99.2293  75.6624 0161700 208.9841 150.2285 14.23952534971530"
      },
      "geometry": {
        "type": "Point",
        "coordinates": [
          106.87033977282275,
          -71.42546135951535
        ]
      }
    },
    {
      "type": "Feature",
      "properties": {
        "norad_id": 31206,
        "name": "FENGYUN 1C DEB",
        "group": "fengyun-1c-debris",
        "lat": -14.468699479361579,
        "lon": 70.42793549531902,
        "alt_km": 816.7229854717634,
        "timestamp": "2025-12-10T20:49:52.834420+00:00",
        "meta_object_name": "FENGYUN 1C DEB",
        "meta_object_id": "1999-025BKL",
        "meta_epoch": "2025-12-10T13:15:46.441440",
        "meta_mean_motion": 14.40482896,
        "meta_eccentricity": 0.00779962,
        "meta_inclination": 98.8431,
        "meta_ra_of_asc_node": 252.4044,
        "meta_arg_of_pericenter": 8.2457,
        "meta_mean_anomaly": 351.9992,
        "meta_ephemeris_type": 0,
        "meta_classification_type": "U",
        "meta_norad_cat_id": 31206,
        "meta_element_set_no": 999,
        "meta_rev_at_epoch": 97814,
        "meta_bstar": 0.0012008919,
        "meta_mean_motion_dot": 3.912e-05,
        "meta_mean_motion_ddot": 0,
        "tle_line1": "1 31206U 99025BKL 25344.55262085  .00003912  00000+0  12009-2 0  9996",
        "tle_line2": "2 31206  98.8431 252.4044 0077996   8.2457 351.9992 14.40482896978145"
      },
      "geometry": {
        "type": "Point",
        "coordinates": [
          70.42793549531902,
          -14.468699479361579
        ]
      }
    },
    {
      "type": "Feature",
      "properties": {
        "norad_id": 31208,
        "name": "FENGYUN 1C DEB",
        "group": "fengyun-1c-debris",
        "lat": -67.15231642580814,
        "lon": 151.07792579464336,
        "alt_km": 683.9056625246012,
        "timestamp": "2025-12-10T20:49:52.834430+00:00",
        "meta_object_name": "FENGYUN 1C DEB",
        "meta_object_id": "1999-025BKN",
        "meta_epoch": "2025-12-09T21:11:38.581152",
        "meta_mean_motion": 14.61694196,
        "meta_eccentricity": 0.00162129,
        "meta_inclination": 99.2399,
        "meta_ra_of_asc_node": 127.2506,
        "meta_arg_of_pericenter": 275.3869,
        "meta_mean_anomaly": 235.9131,
        "meta_ephemeris_type": 0,
        "meta_classification_type": "U",
        "meta_norad_cat_id": 31208,
        "meta_element_set_no": 999,
        "meta_rev_at_epoch": 70437,
        "meta_bstar": 0.0049235559,
        "meta_mean_motion_dot": 0.00024596,
        "meta_mean_motion_ddot": 0,
        "tle_line1": "1 31208U 99025BKN 25343.88308543  .00024596  00000+0  49236-2 0  9996",
        "tle_line2": "2 31208  99.2399 127.2506 0016212 275.3869 235.9131 14.61694196704374"
      },
      "geometry": {
        "type": "Point",
        "coordinates": [
          151.07792579464336,
          -67.15231642580814
        ]
      }
    },
    {
      "type": "Feature",
      "properties": {
        "norad_id": 31209,
        "name": "FENGYUN 1C DEB",
        "group": "fengyun-1c-debris",
        "lat": -73.23006949657103,
        "lon": -131.3964475791807,
        "alt_km": 755.7956958835211,
        "timestamp": "2025-12-10T20:49:52.834440+00:00",
        "meta_object_name": "FENGYUN 1C DEB",
        "meta_object_id": "1999-025BKP",
        "meta_epoch": "2025-12-10T01:20:54.721824",
        "meta_mean_motion": 14.43402924,
        "meta_eccentricity": 0.00214737,
        "meta_inclination": 98.8828,
        "meta_ra_of_asc_node": 79.0207,
        "meta_arg_of_pericenter": 353.1421,
        "meta_mean_anomaly": 6.9471,
        "meta_ephemeris_type": 0,
        "meta_classification_type": "U",
        "meta_norad_cat_id": 31209,
        "meta_element_set_no": 999,
        "meta_rev_at_epoch": 64769,
        "meta_bstar": 0.0038121705,
        "meta_mean_motion_dot": 0.00012883,
        "meta_mean_motion_ddot": 0,
        "tle_line1": "1 31209U 99025BKP 25344.05618891  .00012883  00000+0  38122-2 0  9995",
        "tle_line2": "2 31209  98.8828  79.0207 0021473 353.1421   6.9471 14.43402924647693"
      },
      "geometry": {
        "type": "Point",
        "coordinates": [
          -131.3964475791807,
          -73.23006949657103
        ]
      }
    },
    {
      "type": "Feature",
      "properties": {
        "norad_id": 31210,
        "name": "FENGYUN 1C DEB",
        "group": "fengyun-1c-debris",
        "lat": -28.658881665146108,
        "lon": -9.239584264901945,
        "alt_km": 870.5259866175729,
        "timestamp": "2025-12-10T20:49:52.834450+00:00",
        "meta_object_name": "FENGYUN 1C DEB",
        "meta_object_id": "1999-025BKQ",
        "meta_epoch": "2025-12-10T11:29:53.867616",
        "meta_mean_motion": 14.11991607,
        "meta_eccentricity": 0.00170458,
        "meta_inclination": 98.7186,
        "meta_ra_of_asc_node": 345.5714,
        "meta_arg_of_pericenter": 161.2904,
        "meta_mean_anomaly": 354.1372,
        "meta_ephemeris_type": 0,
        "meta_classification_type": "U",
        "meta_norad_cat_id": 31210,
        "meta_element_set_no": 999,
        "meta_rev_at_epoch": 95935,
        "meta_bstar": 0.00051330869,
        "meta_mean_motion_dot": 8.98e-06,
        "meta_mean_motion_ddot": 0,
        "tle_line1": "1 31210U 99025BKQ 25344.47909569  .00000898  00000+0  51331-3 0  9999",
        "tle_line2": "2 31210  98.7186 345.5714 0017045 161.2904 354.1372 14.11991607959352"
      },
      "geometry": {
        "type": "Point",
        "coordinates": [
          -9.239584264901945,
          -28.658881665146108
        ]
      }
    },
    {
      "type": "Feature",
      "properties": {
        "norad_id": 31211,
        "name": "FENGYUN 1C DEB",
        "group": "fengyun-1c-debris",
        "lat": 64.30019631142603,
        "lon": 2.323186380454332,
        "alt_km": 786.6316483882074,
        "timestamp": "2025-12-10T20:49:52.834460+00:00",
        "meta_object_name": "FENGYUN 1C DEB",
        "meta_object_id": "1999-025BKR",
        "meta_epoch": "2025-12-06T20:08:03.397344",
        "meta_mean_motion": 14.2001942,
        "meta_eccentricity": 0.00510218,
        "meta_inclination": 98.6728,
        "meta_ra_of_asc_node": 16.8654,
        "meta_arg_of_pericenter": 106.1714,
        "meta_mean_anomaly": 254.5086,
        "meta_ephemeris_type": 0,
        "meta_classification_type": "U",
        "meta_norad_cat_id": 31211,
        "meta_element_set_no": 999,
        "meta_rev_at_epoch": 63209,
        "meta_bstar": 0.001766209,
        "meta_mean_motion_dot": 3.766e-05,
        "meta_mean_motion_ddot": 0,
        "tle_line1": "1 31211U 99025BKR 25340.83892821  .00003766  00000+0  17662-2 0  9993",
        "tle_line2": "2 31211  98.6728  16.8654 0051021 106.1714 254.5086 14.20019420632092"
      },
      "geometry": {
        "type": "Point",
        "coordinates": [
          2.323186380454332,
          64.30019631142603
        ]
      }
    },
    {
      "type": "Feature",
      "properties": {
        "norad_id": 31212,
        "name": "FENGYUN 1C DEB",
        "group": "fengyun-1c-debris",
        "lat": 80.76972157367214,
        "lon": -74.76893847674113,
        "alt_km": 837.572077798618,
        "timestamp": "2025-12-10T20:49:52.834469+00:00",
        "meta_object_name": "FENGYUN 1C DEB",
        "meta_object_id": "1999-025BKS",
        "meta_epoch": "2025-11-25T01:25:48.692640",
        "meta_mean_motion": 14.12981607,
        "meta_eccentricity": 0.00745379,
        "meta_inclination": 99.223,
        "meta_ra_of_asc_node": 0.0078,
        "meta_arg_of_pericenter": 220.8092,
        "meta_mean_anomaly": 138.7482,
        "meta_ephemeris_type": 0,
        "meta_classification_type": "U",
        "meta_norad_cat_id": 31212,
        "meta_element_set_no": 999,
        "meta_rev_at_epoch": 95409,
        "meta_bstar": 0.0015990818,
        "meta_mean_motion_dot": 3.014e-05,
        "meta_mean_motion_ddot": 0,
        "tle_line1": "1 31212U 99025BKS 25329.05959135  .00003014  00000+0  15991-2 0  9996",
        "tle_line2": "2 31212  99.2230   0.0078 0074537 220.8092 138.7482 14.12981607954099"
      },
      "geometry": {
        "type": "Point",
        "coordinates": [
          -74.76893847674113,
          80.76972157367214
        ]
      }
    }
  ]
}